{
  "type": "FeatureCollection",
  "features": [
    {
      "type": "Feature",
      "properties": {
        "norad_id": 34340,
        "name": "COSMOS 2251 DEB",
        "group": "cosmos-2251-debris",
        "lat": -73.94466566610811,
        "lon": -162.49431864509964,
        "alt_km": 1110.5748606055677,
        "timestamp": "2025-12-20T14:38:02.363124+00:00",
        "meta_object_name": "COSMOS 2251 DEB",
        "meta_object_id": "1993-036PN",
        "meta_epoch": "2025-12-20T02:59:42.560160",
        "meta_mean_motion": 13.79599431,
        "meta_eccentricity": 0.02835836,
        "meta_inclination": 74.0787,
        "meta_ra_of_asc_node": 295.6522,
        "meta_arg_of_pericenter": 41.7038,
        "meta_mean_anomaly": 341.0681,
        "meta_ephemeris_type": 0,
        "meta_classification_type": "U",
        "meta_norad_cat_id": 34340,
        "meta_element_set_no": 999,
        "meta_rev_at_epoch": 84370,
        "meta_bstar": 0.0012228401,
        "meta_mean_motion_dot": 1.684e-05,
        "meta_mean_motion_ddot": 0,
        "tle_line1": "1 34340U 93036PN  25354.12479815  .00001684  00000+0  12228-2 0  9996",
        "tle_line2": "2 34340  74.0787 295.6522 0283583  41.7038 341.0681 13.79599431843708"
      },
      "geometry": {
        "type": "Point",
        "coordinates": [
          -162.49431864509964,
          -73.94466566610811
        ]
      }
    },
    {
      "type": "Feature",
      "properties": {
        "norad_id": 34343,
        "name": "COSMOS 2251 DEB",
        "group": "cosmos-2251-debris",
        "lat": 8.342430822499344,
        "lon": 76.70146259793842,
        "alt_km": 648.346914263685,
        "timestamp": "2025-12-20T14:38:02.363134+00:00",
        "meta_object_name": "COSMOS 2251 DEB",
        "meta_object_id": "1993-036PR",
        "meta_epoch": "2025-12-20T04:55:06.154176",
        "meta_mean_motion": 14.69544593,
        "meta_eccentricity": 0.00240382,
        "meta_inclination": 74.0205,
        "meta_ra_of_asc_node": 75.0779,
        "meta_arg_of_pericenter": 347.3475,
        "meta_mean_anomaly": 40.5981,
        "meta_ephemeris_type": 0,
        "meta_classification_type": "U",
        "meta_norad_cat_id": 34343,
        "meta_element_set_no": 999,
        "meta_rev_at_epoch": 88840,
        "meta_bstar": 0.0007836704,
        "meta_mean_motion_dot": 4.643e-05,
        "meta_mean_motion_ddot": 0,
        "tle_line1": "1 34343U 93036PR  25354.20493234  .00004643  00000+0  78367-3 0  9994",
        "tle_line2": "2 34343  74.0205  75.0779 0024038 347.3475  40.5981 14.69544593888407"
      },
      "geometry": {
        "type": "Point",
        "coordinates": [
          76.70146259793842,
          8.342430822499344
        ]
      }
    },
    {
      "type": "Feature",
      "properties": {
        "norad_id": 34344,
        "name": "COSMOS 2251 DEB",
        "group": "cosmos-2251-debris",
        "lat": 46.58636396119079,
        "lon": 113.97890400403882,
        "alt_km": 904.8223837660435,
        "timestamp": "2025-12-20T14:38:02.363144+00:00",
        "meta_object_name": "COSMOS 2251 DEB",
        "meta_object_id": "1993-036PS",
        "meta_epoch": "2025-12-18T17:13:37.907904",
        "meta_mean_motion": 14.16454578,
        "meta_eccentricity": 0.01562401,
        "meta_inclination": 73.9796,
        "meta_ra_of_asc_node": 99.676,
        "meta_arg_of_pericenter": 282.6089,
        "meta_mean_anomaly": 201.4311,
        "meta_ephemeris_type": 0,
        "meta_classification_type": "U",
        "meta_norad_cat_id": 34344,
        "meta_element_set_no": 999,
        "meta_rev_at_epoch": 86181,
        "meta_bstar": 0.0015826322,
        "meta_mean_motion_dot": 3.521e-05,
        "meta_mean_motion_ddot": 0,
        "tle_line1": "1 34344U 93036PS  25352.71779986  .00003521  00000+0  15826-2 0  9994",
        "tle_line2": "2 34344  73.9796  99.6760 0156240 282.6089 201.4311 14.16454578861812"
      },
      "geometry": {
        "type": "Point",
        "coordinates": [
          113.97890400403882,
          46.58636396119079
        ]
      }
    },
    {
      "type": "Feature",
      "properties": {
        "norad_id": 34346,
        "name": "COSMOS 2251 DEB",
        "group": "cosmos-2251-debris",
        "lat": 41.97206527179508,
        "lon": -46.44704165767669,
        "alt_km": 840.5605375212835,
        "timestamp": "2025-12-20T14:38:02.363155+00:00",
        "meta_object_name": "COSMOS 2251 DEB",
        "meta_object_id": "1993-036PU",
        "meta_epoch": "2025-12-19T21:32:24.627264",
        "meta_mean_motion": 13.99713542,
        "meta_eccentricity": 0.020619,
        "meta_inclination": 73.9946,
        "meta_ra_of_asc_node": 299.8259,
        "meta_arg_of_pericenter": 117.0243,
        "meta_mean_anomaly": 301.7924,
        "meta_ephemeris_type": 0,
        "meta_classification_type": "U",
        "meta_norad_cat_id": 34346,
        "meta_element_set_no": 999,
        "meta_rev_at_epoch": 85510,
        "meta_bstar": 0.00074201,
        "meta_mean_motion_dot": 1.282e-05,
        "meta_mean_motion_ddot": 0,
        "tle_line1": "1 34346U 93036PU  25353.89750726  .00001282  00000+0  74201-3 0  9992",
        "tle_line2": "2 34346  73.9946 299.8259 0206190 117.0243 301.7924 13.99713542855109"
      },
      "geometry": {
        "type": "Point",
        "coordinates": [
          -46.44704165767669,
          41.97206527179508
        ]
      }
    },
    {
      "type": "Feature",
      "properties": {
        "norad_id": 34383,
        "name": "COSMOS 2251 DEB",
        "group": "cosmos-2251-debris",
        "lat": 66.47583226646348,
        "lon": 60.294766855133375,
        "alt_km": 529.5418263611054,
        "timestamp": "2025-12-20T14:38:02.363165+00:00",
        "meta_object_name": "COSMOS 2251 DEB",
        "meta_object_id": "1993-036PY",
        "meta_epoch": "2025-12-19T20:54:49.716864",
        "meta_mean_motion": 15.09588199,
        "meta_eccentricity": 0.00029763,
        "meta_inclination": 74.0215,
        "meta_ra_of_asc_node": 282.9836,
        "meta_arg_of_pericenter": 46.5992,
        "meta_mean_anomaly": 9.9621,
        "meta_ephemeris_type": 0,
        "meta_classification_type": "U",
        "meta_norad_cat_id": 34383,
        "meta_element_set_no": 999,
        "meta_rev_at_epoch": 89221,
        "meta_bstar": 0.0018768272,
        "meta_mean_motion_dot": 0.00030251,
        "meta_mean_motion_ddot": 0,
        "tle_line1": "1 34383U 93036PY  25353.87140876  .00030251  00000+0  18768-2 0  9993",
        "tle_line2": "2 34383  74.0215 282.9836 0002976  46.5992   9.9621 15.09588199892213"
      },
      "geometry": {
        "type": "Point",
        "coordinates": [
          60.294766855133375,
          66.47583226646348
        ]
      }
    },
    {
      "type": "Feature",
      "properties": {
        "norad_id": 34387,
        "name": "COSMOS 2251 DEB",
        "group": "cosmos-2251-debris",
        "lat": -10.003929956737567,
        "lon": -165.62582907378632,
        "alt_km": 734.5033781252214,
        "timestamp": "2025-12-20T14:38:02.363235+00:00",
        "meta_object_name": "COSMOS 2251 DEB",
        "meta_object_id": "1993-036QC",
        "meta_epoch": "2025-12-20T00:24:51.844608",
        "meta_mean_motion": 14.43835034,
        "meta_eccentricity": 0.00389086,
        "meta_inclination": 74.0389,
        "meta_ra_of_asc_node": 198.3689,
        "meta_arg_of_pericenter": 293.9589,
        "meta_mean_anomaly": 217.0097,
        "meta_ephemeris_type": 0,
        "meta_classification_type": "U",
        "meta_norad_cat_id": 34387,
        "meta_element_set_no": 999,
        "meta_rev_at_epoch": 88286,
        "meta_bstar": 0.0002059113,
        "meta_mean_motion_dot": 6.81e-06,
        "meta_mean_motion_ddot": 0,
        "tle_line1": "1 34387U 93036QC  25354.01726672  .00000681  00000+0  20591-3 0  9990",
        "tle_line2": "2 34387  74.0389 198.3689 0038908 293.9589 217.0097 14.43835034882868"
      },
      "geometry": {
        "type": "Point",
        "coordinates": [
          -165.62582907378632,
          -10.003929956737567
        ]
      }
    },
    {
      "type": "Feature",
      "properties": {
        "norad_id": 34388,
        "name": "COSMOS 2251 DEB",
        "group": "cosmos-2251-debris",
        "lat": 48.28428923511585,
        "lon": 9.617361009418412,
        "alt_km": 728.8294919727741,
        "timestamp": "2025-12-20T14:38:02.363248+00:00",
        "meta_object_name": "COSMOS 2251 DEB",
        "meta_object_id": "1993-036QD",
        "meta_epoch": "2025-12-20T01:29:18.186720",
        "meta_mean_motion": 14.49397701,
        "meta_eccentricity": 0.00138097,
        "meta_inclination": 74.038,
        "meta_ra_of_asc_node": 209.3716,
        "meta_arg_of_pericenter": 257.1748,
        "meta_mean_anomaly": 255.1303,
        "meta_ephemeris_type": 0,
        "meta_classification_type": "U",
        "meta_norad_cat_id": 34388,
        "meta_element_set_no": 999,
        "meta_rev_at_epoch": 88261,
        "meta_bstar": 0.00041867918,
        "meta_mean_motion_dot": 1.576e-05,
        "meta_mean_motion_ddot": 0,
        "tle_line1": "1 34388U 93036QD  25354.06201605  .00001576  00000+0  41868-3 0  9994",
        "tle_line2": "2 34388  74.0380 209.3716 0013809 257.1748 255.1303 14.49397701882612"
      },
      "geometry": {
        "type": "Point",
        "coordinates": [
          9.617361009418412,
          48.28428923511585
        ]
      }
    }
  ]
}